[{"OBJECT_NAME":"ONEWEB-0058","OBJECT_ID":"2020-008AG","EPOCH":"2026-03-03T12:45:55.836864","MEAN_MOTION":13.10369645,"ECCENTRICITY":0.0001973,"INCLINATION":87.8759,"RA_OF_ASC_NODE":57.3195,"ARG_OF_PERICENTER":96.1037,"MEAN_ANOMALY":264.0315,"EPHEMERIS_TYPE":0,"CLASSIFICATION_TYPE":"U","NORAD_CAT_ID":45161,"ELEMENT_SET_NO":999,"REV_AT_EPOCH":29458,"BSTAR":-0.00058273,"MEAN_MOTION_DOT":-1.91e-6,"MEAN_MOTION_DDOT":0},{"OBJECT_NAME":"ONEWEB-0059","OBJECT_ID":"2020-008AH","EPOCH":"2026-03-04T01:30:38.096352","MEAN_MOTION":13.10369912,"ECCENTRICITY":0.0001806,"INCLINATION":87.8759,"RA_OF_ASC_NODE":57.2138,"ARG_OF_PERICENTER":92.3443,"MEAN_ANOMALY":267.7891,"EPHEMERIS_TYPE":0,"CLASSIFICATION_TYPE":"U","NORAD_CAT_ID":45162,"ELEMENT_SET_NO":999,"REV_AT_EPOCH":29455,"BSTAR":0.00036314,"MEAN_MOTION_DOT":1.39e-6,"MEAN_MOTION_DDOT":0},{"OBJECT_NAME":"ONEWEB-0062","OBJECT_ID":"2020-008AJ","EPOCH":"2026-03-04T00:17:42.956736","MEAN_MOTION":13.10374396,"ECCENTRICITY":0.0002105,"INCLINATION":87.8774,"RA_OF_ASC_NODE":57.206,"ARG_OF_PERICENTER":97.8884,"MEAN_ANOMALY":262.2482,"EPHEMERIS_TYPE":0,"CLASSIFICATION_TYPE":"U","NORAD_CAT_ID":45163,"ELEMENT_SET_NO":999,"REV_AT_EPOCH":29441,"BSTAR":-0.00178,"MEAN_MOTION_DOT":-6.09e-6,"MEAN_MOTION_DDOT":0},{"OBJECT_NAME":"ONEWEB-0065","OBJECT_ID":"2020-008AK","EPOCH":"2026-03-04T01:01:46.151328","MEAN_MOTION":13.1037407,"ECCENTRICITY":0.0001808,"INCLINATION":87.8764,"RA_OF_ASC_NODE":57.2089,"ARG_OF_PERICENTER":76.593,"MEAN_ANOMALY":283.5398,"EPHEMERIS_TYPE":0,"CLASSIFICATION_TYPE":"U","NORAD_CAT_ID":45164,"ELEMENT_SET_NO":999,"REV_AT_EPOCH":29411,"BSTAR":0.0019561,"MEAN_MOTION_DOT":6.96e-6,"MEAN_MOTION_DDOT":0},{"OBJECT_NAME":"ONEWEB-0066","OBJECT_ID":"2020-020A","EPOCH":"2026-03-04T00:14:03.064416","MEAN_MOTION":13.11414998,"ECCENTRICITY":0.0001716,"INCLINATION":87.8859,"RA_OF_ASC_NODE":41.98,"ARG_OF_PERICENTER":87.9327,"MEAN_ANOMALY":272.1998,"EPHEMERIS_TYPE":0,"CLASSIFICATION_TYPE":"U","NORAD_CAT_ID":45424,"ELEMENT_SET_NO":999,"REV_AT_EPOCH":28889,"BSTAR":0.0016598,"MEAN_MOTION_DOT":6.01e-6,"MEAN_MOTION_DDOT":0},{"OBJECT_NAME":"ONEWEB-0067","OBJECT_ID":"2020-020B","EPOCH":"2026-03-03T10:29:00.689856","MEAN_MOTION":13.11417422,"ECCENTRICITY":0.00016834,"INCLINATION":87.8866,"RA_OF_ASC_NODE":42.0027,"ARG_OF_PERICENTER":79.9552,"MEAN_ANOMALY":280.1766,"EPHEMERIS_TYPE":0,"CLASSIFICATION_TYPE":"U","NORAD_CAT_ID":45425,"ELEMENT_SET_NO":999,"REV_AT_EPOCH":28887,"BSTAR":-0.0011829782,"MEAN_MOTION_DOT":-4.07e-6,"MEAN_MOTION_DDOT":0},{"OBJECT_NAME":"ONEWEB-0080","OBJECT_ID":"2020-020C","EPOCH":"2026-03-03T10:42:13.078080","MEAN_MOTION":13.11418772,"ECCENTRICITY":0.00020943,"INCLINATION":87.8858,"RA_OF_ASC_NODE":42.0899,"ARG_OF_PERICENTER":92.1895,"MEAN_ANOMALY":267.9473,"EPHEMERIS_TYPE":0,"CLASSIFICATION_TYPE":"U","NORAD_CAT_ID":45426,"ELEMENT_SET_NO":999,"REV_AT_EPOCH":28884,"BSTAR":-0.0010612878,"MEAN_MOTION_DOT":-3.63e-6,"MEAN_MOTION_DDOT":0},{"OBJECT_NAME":"ONEWEB-0090","OBJECT_ID":"2020-020D","EPOCH":"2026-03-03T22:09:43.963200","MEAN_MOTION":13.11416201,"ECCENTRICITY":0.0001892,"INCLINATION":87.8855,"RA_OF_ASC_NODE":41.9959,"ARG_OF_PERICENTER":84.9176,"MEAN_ANOMALY":275.2168,"EPHEMERIS_TYPE":0,"CLASSIFICATION_TYPE":"U","NORAD_CAT_ID":45427,"ELEMENT_SET_NO":999,"REV_AT_EPOCH":28887,"BSTAR":0.0014399,"MEAN_MOTION_DOT":5.23e-6,"MEAN_MOTION_DDOT":0},{"OBJECT_NAME":"ONEWEB-0061","OBJECT_ID":"2020-020E","EPOCH":"2026-03-03T22:55:42.824928","MEAN_MOTION":13.11416127,"ECCENTRICITY":0.0001843,"INCLINATION":87.8857,"RA_OF_ASC_NODE":41.9752,"ARG_OF_PERICENTER":85.9307,"MEAN_ANOMALY":274.2031,"EPHEMERIS_TYPE":0,"CLASSIFICATION_TYPE":"U","NORAD_CAT_ID":45428,"ELEMENT_SET_NO":999,"REV_AT_EPOCH":28883,"BSTAR":-0.0011166,"MEAN_MOTION_DOT":-3.83e-6,"MEAN_MOTION_DDOT":0},{"OBJECT_NAME":"ONEWEB-0081","OBJECT_ID":"2020-020F","EPOCH":"2026-03-04T00:18:55.289952","MEAN_MOTION":13.11413841,"ECCENTRICITY":0.0001635,"INCLINATION":87.8861,"RA_OF_ASC_NODE":41.979,"ARG_OF_PERICENTER":82.6372,"MEAN_ANOMALY":277.4942,"EPHEMERIS_TYPE":0,"CLASSIFICATION_TYPE":"U","NORAD_CAT_ID":45429,"ELEMENT_SET_NO":999,"REV_AT_EPOCH":28895,"BSTAR":0.0010867,"MEAN_MOTION_DOT":3.98e-6,"MEAN_MOTION_DDOT":0},{"OBJECT_NAME":"ONEWEB-0069","OBJECT_ID":"2020-020G","EPOCH":"2026-03-03T20:23:20.004576","MEAN_MOTION":13.11417302,"ECCENTRICITY":0.0001758,"INCLINATION":87.8854,"RA_OF_ASC_NODE":42.0067,"ARG_OF_PERICENTER":84.8663,"MEAN_ANOMALY":275.2665,"EPHEMERIS_TYPE":0,"CLASSIFICATION_TYPE":"U","NORAD_CAT_ID":45430,"ELEMENT_SET_NO":999,"REV_AT_EPOCH":28886,"BSTAR":0.0015808,"MEAN_MOTION_DOT":5.73e-6,"MEAN_MOTION_DDOT":0},{"OBJECT_NAME":"ONEWEB-0031","OBJECT_ID":"2020-020H","EPOCH":"2026-03-03T10:33:41.758560","MEAN_MOTION":13.11417568,"ECCENTRICITY":0.00019985,"INCLINATION":87.8846,"RA_OF_ASC_NODE":42.1065,"ARG_OF_PERICENTER":88.6239,"MEAN_ANOMALY":271.5118,"EPHEMERIS_TYPE":0,"CLASSIFICATION_TYPE":"U","NORAD_CAT_ID":45431,"ELEMENT_SET_NO":999,"REV_AT_EPOCH":28879,"BSTAR":-0.00085208458,"MEAN_MOTION_DOT":-2.89e-6,"MEAN_MOTION_DDOT":0},{"OBJECT_NAME":"ONEWEB-0027","OBJECT_ID":"2020-020J","EPOCH":"2026-03-03T19:55:58.623168","MEAN_MOTION":13.17647362,"ECCENTRICITY":0.0002253,"INCLINATION":87.915,"RA_OF_ASC_NODE":26.7637,"ARG_OF_PERICENTER":81.9174,"MEAN_ANOMALY":278.2213,"EPHEMERIS_TYPE":0,"CLASSIFICATION_TYPE":"U","NORAD_CAT_ID":45432,"ELEMENT_SET_NO":999,"REV_AT_EPOCH":29248,"BSTAR":0.00012179,"MEAN_MOTION_DOT":6.0e-7,"MEAN_MOTION_DDOT":0},{"OBJECT_NAME":"ONEWEB-0064","OBJECT_ID":"2020-020K","EPOCH":"2026-03-03T10:31:15.269088","MEAN_MOTION":13.11416801,"ECCENTRICITY":0.00020245,"INCLINATION":87.8847,"RA_OF_ASC_NODE":42.0975,"ARG_OF_PERICENTER":85.6855,"MEAN_ANOMALY":274.4504,"EPHEMERIS_TYPE":0,"CLASSIFICATION_TYPE":"U","NORAD_CAT_ID":45433,"ELEMENT_SET_NO":999,"REV_AT_EPOCH":28882,"BSTAR":-0.0010068079,"MEAN_MOTION_DOT":-3.44e-6,"MEAN_MOTION_DDOT":0},{"OBJECT_NAME":"ONEWEB-0018","OBJECT_ID":"2020-020L","EPOCH":"2026-03-03T20:26:59.664480","MEAN_MOTION":13.11416266,"ECCENTRICITY":0.0001765,"INCLINATION":87.8858,"RA_OF_ASC_NODE":42.0112,"ARG_OF_PERICENTER":90.4873,"MEAN_ANOMALY":269.6457,"EPHEMERIS_TYPE":0,"CLASSIFICATION_TYPE":"U","NORAD_CAT_ID":45434,"ELEMENT_SET_NO":999,"REV_AT_EPOCH":28882,"BSTAR":0.0014554,"MEAN_MOTION_DOT":5.29e-6,"MEAN_MOTION_DDOT":0},{"OBJECT_NAME":"ONEWEB-0083","OBJECT_ID":"2020-020M","EPOCH":"2026-03-03T20:13:33.943872","MEAN_MOTION":13.11416624,"ECCENTRICITY":0.000189,"INCLINATION":87.886,"RA_OF_ASC_NODE":42.0005,"ARG_OF_PERICENTER":85.0568,"MEAN_ANOMALY":275.0776,"EPHEMERIS_TYPE":0,"CLASSIFICATION_TYPE":"U","NORAD_CAT_ID":45435,"ELEMENT_SET_NO":999,"REV_AT_EPOCH":28886,"BSTAR":0.0011586,"MEAN_MOTION_DOT":4.23e-6,"MEAN_MOTION_DDOT":0},{"OBJECT_NAME":"ONEWEB-0095","OBJECT_ID":"2020-020N","EPOCH":"2026-03-03T10:50:59.409600","MEAN_MOTION":13.11419205,"ECCENTRICITY":0.00023859,"INCLINATION":87.8859,"RA_OF_ASC_NODE":42.0872,"ARG_OF_PERICENTER":67.98,"MEAN_ANOMALY":292.1582,"EPHEMERIS_TYPE":0,"CLASSIFICATION_TYPE":"U","NORAD_CAT_ID":45436,"ELEMENT_SET_NO":999,"REV_AT_EPOCH":28881,"BSTAR":0.00050278399,"MEAN_MOTION_DOT":1.91e-6,"MEAN_MOTION_DDOT":0}]
